CCSDS_OMM_VERS = 2.0
CREATION_DATE  = 
ORIGINATOR     = 

OBJECT_NAME    = ATLAS CENTAUR R/B
OBJECT_ID      = 1972-065B
CENTER_NAME    = EARTH
REF_FRAME      = TEME
TIME_SYSTEM    = UTC
MEAN_ELEMENT_THEORY = SGP/SGP4

EPOCH          = 2025-11-30T21:36:58.701024
MEAN_MOTION    = 14.77356061
ECCENTRICITY   = .00345767
INCLINATION    = 34.9996
RA_OF_ASC_NODE = 164.5470
ARG_OF_PERICENTER = 259.6120
MEAN_ANOMALY   = 100.0682

EPHEMERIS_TYPE = 0
CLASSIFICATION_TYPE = U
NORAD_CAT_ID   = 6155
ELEMENT_SET_NO = 999
REV_AT_EPOCH   = 82664
BSTAR          = .16405782E-3
MEAN_MOTION_DOT = .1174E-4
MEAN_MOTION_DDOT = 0

CCSDS_OMM_VERS = 2.0
CREATION_DATE  = 
ORIGINATOR     = 

OBJECT_NAME    = SL-8 R/B
OBJECT_ID      = 1975-112B
CENTER_NAME    = EARTH
REF_FRAME      = TEME
TIME_SYSTEM    = UTC
MEAN_ELEMENT_THEORY = SGP/SGP4

EPOCH          = 2025-11-30T22:26:59.369568
MEAN_MOTION    = 14.38133079
ECCENTRICITY   = .00163634
INCLINATION    = 74.0596
RA_OF_ASC_NODE = 200.5700
ARG_OF_PERICENTER = 313.2901
MEAN_ANOMALY   = 46.6887

EPHEMERIS_TYPE = 0
CLASSIFICATION_TYPE = U
NORAD_CAT_ID   = 8459
ELEMENT_SET_NO = 999
REV_AT_EPOCH   = 61767
BSTAR          = .10538303E-3
MEAN_MOTION_DOT = .294E-5
MEAN_MOTION_DDOT = 0

CCSDS_OMM_VERS = 2.0
CREATION_DATE  = 
ORIGINATOR     = 

OBJECT_NAME    = SL-3 R/B
OBJECT_ID      = 1977-057B
CENTER_NAME    = EARTH
REF_FRAME      = TEME
TIME_SYSTEM    = UTC
MEAN_ELEMENT_THEORY = SGP/SGP4

EPOCH          = 2025-11-30T22:49:39.070560
MEAN_MOTION    = 15.42524898
ECCENTRICITY   = .00064428
INCLINATION    = 97.5678
RA_OF_ASC_NODE = 137.8238
ARG_OF_PERICENTER = 282.4790
MEAN_ANOMALY   = 77.5736

EPHEMERIS_TYPE = 0
CLASSIFICATION_TYPE = U
NORAD_CAT_ID   = 10114
ELEMENT_SET_NO = 999
REV_AT_EPOCH   = 65309
BSTAR          = .30819564E-3
MEAN_MOTION_DOT = .13293E-3
MEAN_MOTION_DDOT = 0

CCSDS_OMM_VERS = 2.0
CREATION_DATE  = 
ORIGINATOR     = 

OBJECT_NAME    = SEASAT 1
OBJECT_ID      = 1978-064A
CENTER_NAME    = EARTH
REF_FRAME      = TEME
TIME_SYSTEM    = UTC
MEAN_ELEMENT_THEORY = SGP/SGP4

EPOCH          = 2025-11-30T18:48:37.580256
MEAN_MOTION    = 14.46038822
ECCENTRICITY   = .00019309
INCLINATION    = 108.0096
RA_OF_ASC_NODE = 277.9523
ARG_OF_PERICENTER = 250.7627
MEAN_ANOMALY   = 109.3310

EPHEMERIS_TYPE = 0
CLASSIFICATION_TYPE = U
NORAD_CAT_ID   = 10967
ELEMENT_SET_NO = 999
REV_AT_EPOCH   = 49221
BSTAR          = .16008081E-3
MEAN_MOTION_DOT = .434E-5
MEAN_MOTION_DDOT = 0

CCSDS_OMM_VERS = 2.0
CREATION_DATE  = 
ORIGINATOR     = 

OBJECT_NAME    = SL-14 R/B
OBJECT_ID      = 1979-011B
CENTER_NAME    = EARTH
REF_FRAME      = TEME
TIME_SYSTEM    = UTC
MEAN_ELEMENT_THEORY = SGP/SGP4

EPOCH          = 2025-11-30T23:34:53.563296
MEAN_MOTION    = 14.91747462
ECCENTRICITY   = .00169192
INCLINATION    = 82.5243
RA_OF_ASC_NODE = 190.1942
ARG_OF_PERICENTER = 31.8802
MEAN_ANOMALY   = 328.3438

EPHEMERIS_TYPE = 0
CLASSIFICATION_TYPE = U
NORAD_CAT_ID   = 11267
ELEMENT_SET_NO = 999
REV_AT_EPOCH   = 51406
BSTAR          = .65730923E-4
MEAN_MOTION_DOT = .689E-5
MEAN_MOTION_DDOT = 0

CCSDS_OMM_VERS = 2.0
CREATION_DATE  = 
ORIGINATOR     = 

OBJECT_NAME    = SL-8 R/B
OBJECT_ID      = 1979-089B
CENTER_NAME    = EARTH
REF_FRAME      = TEME
TIME_SYSTEM    = UTC
MEAN_ELEMENT_THEORY = SGP/SGP4

EPOCH          = 2025-11-30T23:24:19.482336
MEAN_MOTION    = 14.42269986
ECCENTRICITY   = .00145101
INCLINATION    = 74.0689
RA_OF_ASC_NODE = 273.7522
ARG_OF_PERICENTER = 113.1573
MEAN_ANOMALY   = 247.1113

EPHEMERIS_TYPE = 0
CLASSIFICATION_TYPE = U
NORAD_CAT_ID   = 11574
ELEMENT_SET_NO = 999
REV_AT_EPOCH   = 42187
BSTAR          = .10389543E-3
MEAN_MOTION_DOT = .317E-5
MEAN_MOTION_DDOT = 0

CCSDS_OMM_VERS = 2.0
CREATION_DATE  = 
ORIGINATOR     = 

OBJECT_NAME    = SL-14 R/B
OBJECT_ID      = 1980-005B
CENTER_NAME    = EARTH
REF_FRAME      = TEME
TIME_SYSTEM    = UTC
MEAN_ELEMENT_THEORY = SGP/SGP4

EPOCH          = 2025-11-30T22:20:21.965856
MEAN_MOTION    = 14.90768754
ECCENTRICITY   = .00169775
INCLINATION    = 82.5159
RA_OF_ASC_NODE = 40.8979
ARG_OF_PERICENTER = 129.5837
MEAN_ANOMALY   = 230.6885

EPHEMERIS_TYPE = 0
CLASSIFICATION_TYPE = U
NORAD_CAT_ID   = 11672
ELEMENT_SET_NO = 999
REV_AT_EPOCH   = 46177
BSTAR          = .70198947E-4
MEAN_MOTION_DOT = .717E-5
MEAN_MOTION_DDOT = 0

CCSDS_OMM_VERS = 2.0
CREATION_DATE  = 
ORIGINATOR     = 

OBJECT_NAME    = SL-8 R/B
OBJECT_ID      = 1981-003B
CENTER_NAME    = EARTH
REF_FRAME      = TEME
TIME_SYSTEM    = UTC
MEAN_ELEMENT_THEORY = SGP/SGP4

EPOCH          = 2025-11-30T20:24:04.084992
MEAN_MOTION    = 15.06477038
ECCENTRICITY   = .02812446
INCLINATION    = 82.9304
RA_OF_ASC_NODE = 21.1440
ARG_OF_PERICENTER = 161.2908
MEAN_ANOMALY   = 199.8921

EPHEMERIS_TYPE = 0
CLASSIFICATION_TYPE = U
NORAD_CAT_ID   = 12139
ELEMENT_SET_NO = 999
REV_AT_EPOCH   = 29977
BSTAR          = .62533694E-3
MEAN_MOTION_DOT = .23348E-3
MEAN_MOTION_DDOT = 0

CCSDS_OMM_VERS = 2.0
CREATION_DATE  = 
ORIGINATOR     = 

OBJECT_NAME    = SL-3 R/B
OBJECT_ID      = 1981-046B
CENTER_NAME    = EARTH
REF_FRAME      = TEME
TIME_SYSTEM    = UTC
MEAN_ELEMENT_THEORY = SGP/SGP4

EPOCH          = 2025-11-30T22:18:19.733184
MEAN_MOTION    = 15.39238403
ECCENTRICITY   = .00197302
INCLINATION    = 81.2343
RA_OF_ASC_NODE = 48.0610
ARG_OF_PERICENTER = 5.7121
MEAN_ANOMALY   = 354.4342

EPHEMERIS_TYPE = 0
CLASSIFICATION_TYPE = U
NORAD_CAT_ID   = 12465
ELEMENT_SET_NO = 999
REV_AT_EPOCH   = 42322
BSTAR          = .29923495E-3
MEAN_MOTION_DOT = .11754E-3
MEAN_MOTION_DDOT = 0

CCSDS_OMM_VERS = 2.0
CREATION_DATE  = 
ORIGINATOR     = 

OBJECT_NAME    = SL-3 R/B
OBJECT_ID      = 1981-103B
CENTER_NAME    = EARTH
REF_FRAME      = TEME
TIME_SYSTEM    = UTC
MEAN_ELEMENT_THEORY = SGP/SGP4

EPOCH          = 2025-11-30T22:38:15.208512
MEAN_MOTION    = 15.20008248
ECCENTRICITY   = .00111348
INCLINATION    = 81.1584
RA_OF_ASC_NODE = 329.1688
ARG_OF_PERICENTER = 259.1551
MEAN_ANOMALY   = 100.8426

EPHEMERIS_TYPE = 0
CLASSIFICATION_TYPE = U
NORAD_CAT_ID   = 12904
ELEMENT_SET_NO = 999
REV_AT_EPOCH   = 95822
BSTAR          = .35575441E-3
MEAN_MOTION_DOT = .77E-4
MEAN_MOTION_DDOT = 0

CCSDS_OMM_VERS = 2.0
CREATION_DATE  = 
ORIGINATOR     = 

OBJECT_NAME    = SL-3 R/B
OBJECT_ID      = 1982-013B
CENTER_NAME    = EARTH
REF_FRAME      = TEME
TIME_SYSTEM    = UTC
MEAN_ELEMENT_THEORY = SGP/SGP4

EPOCH          = 2025-11-30T22:24:02.462976
MEAN_MOTION    = 15.20914107
ECCENTRICITY   = .00234787
INCLINATION    = 81.1739
RA_OF_ASC_NODE = 276.4268
ARG_OF_PERICENTER = 148.5806
MEAN_ANOMALY   = 211.6834

EPHEMERIS_TYPE = 0
CLASSIFICATION_TYPE = U
NORAD_CAT_ID   = 13068
ELEMENT_SET_NO = 999
REV_AT_EPOCH   = 38933
BSTAR          = .241146E-3
MEAN_MOTION_DOT = .5398E-4
MEAN_MOTION_DDOT = 0

CCSDS_OMM_VERS = 2.0
CREATION_DATE  = 
ORIGINATOR     = 

OBJECT_NAME    = SL-3 R/B
OBJECT_ID      = 1982-039B
CENTER_NAME    = EARTH
REF_FRAME      = TEME
TIME_SYSTEM    = UTC
MEAN_ELEMENT_THEORY = SGP/SGP4

EPOCH          = 2025-11-30T23:20:20.900832
MEAN_MOTION    = 15.09413026
ECCENTRICITY   = .00305562
INCLINATION    = 81.1738
RA_OF_ASC_NODE = 329.6330
ARG_OF_PERICENTER = 292.0060
MEAN_ANOMALY   = 67.7920

EPHEMERIS_TYPE = 0
CLASSIFICATION_TYPE = U
NORAD_CAT_ID   = 13154
ELEMENT_SET_NO = 999
REV_AT_EPOCH   = 36674
BSTAR          = .20593323E-3
MEAN_MOTION_DOT = .335E-4
MEAN_MOTION_DDOT = 0

