ATLAS CENTAUR R/B       
1 06155U 72065B   25334.90067941  .00001174  00000+0  16406-3 0  9992
2 06155  34.9996 164.5470 0034576 259.6120 100.0682 14.77356061826649
SL-8 R/B                
1 08459U 75112B   25334.93540937  .00000294  00000+0  10538-3 0  9993
2 08459  74.0596 200.5700 0016363 313.2901  46.6887 14.38133079617676
SL-3 R/B                
1 10114U 77057B   25334.95114665  .00013293  00000+0  30820-3 0  9990
2 10114  97.5678 137.8238 0006442 282.4790  77.5736 15.42524898653097
SEASAT 1                
1 10967U 78064A   25334.78376829  .00000434  00000+0  16008-3 0  9993
2 10967 108.0096 277.9523 0001930 250.7627 109.3310 14.46038822492219
SL-14 R/B               
1 11267U 79011B   25334.98256439  .00000689  00000+0  65731-4 0  9996
2 11267  82.5243 190.1942 0016919  31.8802 328.3438 14.91747462514069
SL-8 R/B                
1 11574U 79089B   25334.97522549  .00000317  00000+0  10390-3 0  9997
2 11574  74.0689 273.7522 0014510 113.1573 247.1113 14.42269986421876
SL-14 R/B               
1 11672U 80005B   25334.93080979  .00000717  00000+0  70199-4 0  9996
2 11672  82.5159  40.8979 0016977 129.5837 230.6885 14.90768754461779
SL-8 R/B                
1 12139U 81003B   25334.85004728  .00023348  00000+0  62534-3 0  9991
2 12139  82.9304  21.1440 0281244 161.2908 199.8921 15.06477038299778
SL-3 R/B                
1 12465U 81046B   25334.92939506  .00011754  00000+0  29923-3 0  9992
2 12465  81.2343  48.0610 0019730   5.7121 354.4342 15.39238403423222
SL-3 R/B                
1 12904U 81103B   25334.94323158  .00007700  00000+0  35575-3 0  9992
2 12904  81.1584 329.1688 0011134 259.1551 100.8426 15.20008248958227
SL-3 R/B                
1 13068U 82013B   25334.93336184  .00005398  00000+0  24115-3 0  9996
2 13068  81.1739 276.4268 0023478 148.5806 211.6834 15.20914107389331
SL-3 R/B                
1 13154U 82039B   25334.97246413  .00003350  00000+0  20593-3 0  9991
2 13154  81.1738 329.6330 0030556 292.0060  67.7920 15.09413026366746
